OBJECT_NAME,OBJECT_ID,EPOCH,MEAN_MOTION,ECCENTRICITY,INCLINATION,RA_OF_ASC_NODE,ARG_OF_PERICENTER,MEAN_ANOMALY,EPHEMERIS_TYPE,CLASSIFICATION_TYPE,NORAD_CAT_ID,ELEMENT_SET_NO,REV_AT_EPOCH,BSTAR,MEAN_MOTION_DOT,MEAN_MOTION_DDOT
KOREASAT 5 (MUGUNGWHA 5),2006-034A,2026-07-16T14:10:38.893152,1.00269046,.00019054,1.8592,82.6223,81.4739,96.0235,0,U,29349,999,4161,0,-.369E-5,0
DIRECTV 9S,2006-043A,2026-07-16T14:33:00.575424,1.00271385,.00049587,2.4949,80.5470,31.6743,299.2633,0,U,29494,999,5167,0,-.125E-5,0
OPTUS D1,2006-043B,2026-07-16T03:46:46.085376,1.00269822,.00033669,3.1074,79.2985,32.4913,30.8389,0,U,29495,999,7241,0,-.197E-5,0
BADR-4,2006-051A,2026-07-16T13:29:09.081888,1.00272035,.00047795,2.0788,80.7974,31.8248,58.5002,0,U,29526,999,5156,0,.144E-5,0
WILDBLUE-1,2006-054A,2026-07-16T14:30:15.838272,1.00271531,.00013535,2.8771,80.1127,43.0102,277.6640,0,U,29643,999,5408,0,-.61E-6,0
SKYNET 5A,2007-007B,2026-07-16T13:46:25.848192,1.00268846,.00036873,5.3722,73.3805,47.0574,115.7588,0,U,30794,999,7099,0,-.284E-5,0
ANIK F3,2007-009A,2026-07-16T14:28:08.541696,1.00271487,.00024991,1.2718,83.4953,31.2496,277.9940,0,U,31102,999,4685,0,-.12E-6,0
ASTRA 1L,2007-016A,2026-07-16T11:29:40.550784,1.00271006,.0005257,1.3956,81.3397,34.9828,325.8953,0,U,31306,999,4528,0,-.196E-5,0
GALAXY 17 (G-17),2007-016B,2026-07-16T12:55:04.849248,1.00271518,.00036028,3.0439,79.5289,35.1886,288.3967,0,U,31307,999,7009,0,-.218E-5,0
INTELSAT 11 (IS-11),2007-044B,2026-07-16T09:53:13.260192,0.99052543,.00042506,3.6396,78.3141,100.3207,261.1706,0,U,32253,999,6874,0,-.193E-5,0
WGS F1 (USA 195),2007-046A,2026-07-16T09:41:51.849312,1.00271171,.00002902,0.0160,66.1444,146.1759,184.8706,0,U,32258,999,5262,0,-.278E-5,0
SKYNET 5B,2007-056B,2026-07-16T06:35:47.591232,1.00275188,.00037146,5.3232,73.1544,44.9462,300.0780,0,U,32294,999,6848,0,.127E-5,0
ASTRA 4A,2007-057A,2026-07-16T13:20:39.895584,1.00271766,.00023452,0.0375,288.5608,191.8862,18.8910,0,U,32299,999,5194,0,.22E-6,0
HORIZONS-2,2007-063B,2026-07-16T06:07:35.294304,1.00268963,.00035814,2.6751,80.2685,21.4177,210.4729,0,U,32388,999,6810,0,-.265E-5,0
THURAYA-3,2008-001A,2026-07-16T14:51:38.581056,1.00272305,.00021707,6.0384,35.8250,77.6414,107.5835,0,U,32404,999,6778,0,-.3E-7,0
THOR 5,2008-006A,2026-07-16T13:18:55.063872,1.00271695,.00023821,0.0469,238.1484,245.4426,9.7592,0,U,32487,999,6761,0,-.2E-6,0
AMC-14,2008-011A,2026-07-16T00:00:49.699008,1.00420354,.00395939,24.0434,20.1720,8.4398,344.6203,0,U,32708,999,6845,0,-.193E-5,0
DIRECTV 11,2008-013A,2026-07-16T14:33:23.039424,1.00271885,.00000653,0.0283,224.0214,298.6657,250.9069,0,U,32729,999,4588,0,-.136E-5,0
ICO G1,2008-016A,2026-07-16T12:52:50.064384,1.00272976,.0002294,5.5251,36.0244,69.4220,289.2778,0,U,32763,999,6683,0,-.184E-5,0
VINASAT-1,2008-018A,2026-07-16T13:56:56.532768,1.00270041,.00015903,0.0481,267.6306,225.7785,142.1653,0,U,32767,999,6688,0,-.339E-5,0
STAR ONE C2,2008-018B,2026-07-16T13:00:41.810112,1.00270419,.00028052,1.3135,82.1828,49.7523,292.6004,0,U,32768,999,6694,0,-.288E-5,0
AMOS-3,2008-022A,2026-07-16T15:42:22.795200,1.00488768,.00030573,0.5294,85.7876,83.9236,61.7607,0,U,32794,999,8263,0,-.17E-6,0
GALAXY 18 (G-18),2008-024A,2026-07-16T14:26:53.661408,1.00270713,.0002825,0.0137,74.1550,40.3684,273.6113,0,U,32951,999,4614,0,.15E-6,0
ZHONGXING-9,2008-028A,2026-07-16T15:07:21.597312,1.00268857,.00032544,0.8421,84.9393,29.9631,138.7394,0,U,33051,999,6633,0,-.259E-5,0
SKYNET 5C,2008-030A,2026-07-16T09:48:51.178752,1.00272266,.00041451,3.8618,76.6923,46.7409,300.2238,0,U,33055,999,6624,0,-.152E-5,0
TURKSAT 3A,2008-030B,2026-07-16T13:31:16.379328,1.00271050,.00049095,0.0385,75.6971,20.4424,83.0389,0,U,33056,999,5265,0,.136E-5,0
ECHOSTAR 11,2008-035A,2026-07-16T14:30:38.302272,1.00271050,.00022421,1.0795,83.8388,21.7465,296.6972,0,U,33207,999,5150,0,-.69E-6,0
SUPERBIRD-C2,2008-038A,2026-07-16T13:58:03.924768,1.00272325,.00062184,2.4349,80.8974,38.4835,160.5452,0,U,33274,999,10602,0,-.318E-5,0
INMARSAT 4-F3,2008-039A,2026-07-16T12:51:20.206656,1.00272077,.00027789,4.3178,31.6986,89.4960,268.0157,0,U,33278,999,4683,0,-.152E-5,0
NIMIQ 4,2008-044A,2026-07-16T12:55:57.264672,1.00271442,.00019156,0.0130,34.9590,66.9718,304.4277,0,U,33373,999,6527,0,-.231E-5,0
GALAXY 19 (G-19),2008-045A,2026-07-16T12:51:35.184096,1.00270909,.00023848,0.0533,245.2732,240.1709,264.8197,0,U,33376,999,6519,0,-.15E-5,0
ASTRA 1M,2008-057A,2026-07-16T13:24:47.001312,1.00270189,.00044868,0.3701,82.7853,41.9012,30.2650,0,U,33436,999,4603,0,.11E-5,0
