KOREASAT 5 (MUGUNGWHA 5)
1 29349U 06034A   26197.59072793 -.00000369  00000+0  00000+0 0  9994
2 29349   1.8592  82.6223 0001905  81.4739  96.0235  1.00269046 41619
DIRECTV 9S              
1 29494U 06043A   26197.60625666 -.00000125  00000+0  00000+0 0  9990
2 29494   2.4949  80.5470 0004958  31.6743 299.2633  1.00271385 51672
OPTUS D1                
1 29495U 06043B   26197.15747784 -.00000197  00000+0  00000+0 0  9996
2 29495   3.1074  79.2985 0003366  32.4913  30.8389  1.00269822 72411
BADR-4                  
1 29526U 06051A   26197.56191067  .00000144  00000+0  00000+0 0  9993
2 29526   2.0788  80.7974 0004779  31.8248  58.5002  1.00272035 51566
WILDBLUE-1              
1 29643U 06054A   26197.60434998 -.00000061  00000+0  00000+0 0  9993
2 29643   2.8771  80.1127 0001353  43.0102 277.6640  1.00271531 54081
SKYNET 5A               
1 30794U 07007B   26197.57391028 -.00000284  00000+0  00000+0 0  9990
2 30794   5.3722  73.3805 0003687  47.0574 115.7588  1.00268846 70996
ANIK F3                 
1 31102U 07009A   26197.60287664 -.00000012  00000+0  00000+0 0  9999
2 31102   1.2718  83.4953 0002499  31.2496 277.9940  1.00271487 46850
ASTRA 1L                
1 31306U 07016A   26197.47894156 -.00000196  00000+0  00000+0 0  9991
2 31306   1.3956  81.3397 0005257  34.9828 325.8953  1.00271006 45284
GALAXY 17 (G-17)        
1 31307U 07016B   26197.53825057 -.00000218  00000+0  00000+0 0  9998
2 31307   3.0439  79.5289 0003602  35.1886 288.3967  1.00271518 70091
INTELSAT 11 (IS-11)     
1 32253U 07044B   26197.41195903 -.00000193  00000+0  00000+0 0  9999
2 32253   3.6396  78.3141 0004250 100.3207 261.1706  0.99052543 68747
WGS F1 (USA 195)        
1 32258U 07046A   26197.40407233 -.00000278  00000+0  00000+0 0  9991
2 32258   0.0160  66.1444 0000290 146.1759 184.8706  1.00271171 52627
SKYNET 5B               
1 32294U 07056B   26197.27485638  .00000127  00000+0  00000+0 0  9994
2 32294   5.3232  73.1544 0003714  44.9462 300.0780  1.00275188 68481
ASTRA 4A                
1 32299U 07057A   26197.55601731  .00000022  00000+0  00000+0 0  9999
2 32299   0.0375 288.5608 0002345 191.8862  18.8910  1.00271766 51944
HORIZONS-2              
1 32388U 07063B   26197.25526961 -.00000265  00000+0  00000+0 0  9993
2 32388   2.6751  80.2685 0003581  21.4177 210.4729  1.00268963 68100
THURAYA-3               
1 32404U 08001A   26197.61919654 -.00000003  00000+0  00000+0 0  9990
2 32404   6.0384  35.8250 0002170  77.6414 107.5835  1.00272305 67785
THOR 5                  
1 32487U 08006A   26197.55480398 -.00000020  00000+0  00000+0 0  9996
2 32487   0.0469 238.1484 0002382 245.4426   9.7592  1.00271695 67610
AMC-14                  
1 32708U 08011A   26197.00057522 -.00000193  00000+0  00000+0 0  9998
2 32708  24.0434  20.1720 0039593   8.4398 344.6203  1.00420354 68456
DIRECTV 11              
1 32729U 08013A   26197.60651666 -.00000136  00000+0  00000+0 0  9995
2 32729   0.0283 224.0214 0000065 298.6657 250.9069  1.00271885 45885
ICO G1                  
1 32763U 08016A   26197.53669056 -.00000184  00000+0  00000+0 0  9993
2 32763   5.5251  36.0244 0002294  69.4220 289.2778  1.00272976 66830
VINASAT-1               
1 32767U 08018A   26197.58120987 -.00000339  00000+0  00000+0 0  9991
2 32767   0.0481 267.6306 0001590 225.7785 142.1653  1.00270041 66886
STAR ONE C2             
1 32768U 08018B   26197.54215058 -.00000288  00000+0  00000+0 0  9995
2 32768   1.3135  82.1828 0002805  49.7523 292.6004  1.00270419 66947
AMOS-3                  
1 32794U 08022A   26197.65443050 -.00000017  00000+0  00000+0 0  9996
2 32794   0.5294  85.7876 0003057  83.9236  61.7607  1.00488768 82632
GALAXY 18 (G-18)        
1 32951U 08024A   26197.60200997  .00000015  00000+0  00000+0 0  9996
2 32951   0.0137  74.1550 0002825  40.3684 273.6113  1.00270713 46146
ZHONGXING-9             
1 33051U 08028A   26197.63011108 -.00000259  00000+0  00000+0 0  9990
2 33051   0.8421  84.9393 0003254  29.9631 138.7394  1.00268857 66339
SKYNET 5C               
1 33055U 08030A   26197.40892568 -.00000152  00000+0  00000+0 0  9991
2 33055   3.8618  76.6923 0004145  46.7409 300.2238  1.00272266 66243
TURKSAT 3A              
1 33056U 08030B   26197.56338402  .00000136  00000+0  00000+0 0  9992
2 33056   0.0385  75.6971 0004909  20.4424  83.0389  1.00271050 52653
ECHOSTAR 11             
1 33207U 08035A   26197.60460998 -.00000069  00000+0  00000+0 0  9992
2 33207   1.0795  83.8388 0002242  21.7465 296.6972  1.00271050 51500
SUPERBIRD-C2            
1 33274U 08038A   26197.58198987 -.00000318  00000+0  00000+0 0  9999
2 33274   2.4349  80.8974 0006218  38.4835 160.5452  1.00272325106021
INMARSAT 4-F3           
1 33278U 08039A   26197.53565054 -.00000152  00000+0  00000+0 0  9998
2 33278   4.3178  31.6986 0002778  89.4960 268.0157  1.00272077 46837
NIMIQ 4                 
1 33373U 08044A   26197.53885723 -.00000231  00000+0  00000+0 0  9996
2 33373   0.0130  34.9590 0001915  66.9718 304.4277  1.00271442 65276
GALAXY 19 (G-19)        
1 33376U 08045A   26197.53582389 -.00000150  00000+0  00000+0 0  9992
2 33376   0.0533 245.2732 0002384 240.1709 264.8197  1.00270909 65196
ASTRA 1M                
1 33436U 08057A   26197.55887733  .00000110  00000+0  00000+0 0  9990
2 33436   0.3701  82.7853 0004486  41.9012  30.2650  1.00270189 46031
